[{"OBJECT_NAME":"STARLINK-4517","OBJECT_ID":"2022-097C","EPOCH":"2026-03-09T10:54:53.801568","MEAN_MOTION":15.08837888,"ECCENTRICITY":0.0001338,"INCLINATION":53.2169,"RA_OF_ASC_NODE":125.176,"ARG_OF_PERICENTER":95.9433,"MEAN_ANOMALY":264.1712,"EPHEMERIS_TYPE":0,"CLASSIFICATION_TYPE":"U","NORAD_CAT_ID":53390,"ELEMENT_SET_NO":999,"REV_AT_EPOCH":19878,"BSTAR":-8.993758e-6,"MEAN_MOTION_DOT":-4.31e-6,"MEAN_MOTION_DDOT":0},{"OBJECT_NAME":"OBJECT E","OBJECT_ID":"2025-013E","EPOCH":"2026-03-09T23:59:52.369152","MEAN_MOTION":15.10347623,"ECCENTRICITY":0.00085591,"INCLINATION":97.6477,"RA_OF_ASC_NODE":238.3736,"ARG_OF_PERICENTER":6.9171,"MEAN_ANOMALY":353.2174,"EPHEMERIS_TYPE":0,"CLASSIFICATION_TYPE":"U","NORAD_CAT_ID":62733,"ELEMENT_SET_NO":999,"REV_AT_EPOCH":6224,"BSTAR":0.00032920786,"MEAN_MOTION_DOT":5.34e-5,"MEAN_MOTION_DDOT":0}]
